{
    "RECORDS": [
        {
            "bb": null,
            "bb_pos": 0,
            "CCSDS_OPM_VERS": 19713.04,
            "CREATION_DATE": "2065-04-10T06:06:32.627Z",
            "ORIGINATOR": "Larson Inc",
            "OBJECT_NAME": "0xc",
            "OBJECT_ID": "0xb",
            "CENTER_NAME": "0xc",
            "REF_FRAME": null,
            "REF_FRAME_EPOCH": "2091-07-19T00:59:56.794Z",
            "TIME_SYSTEM": "0xA",
            "COMMENT": "0x4",
            "EPOCH": "2018-02-12T17:24:47.983Z",
            "X": 69888.31,
            "Y": 4153.07,
            "Z": 54608.93,
            "X_DOT": 60413.4,
            "Y_DOT": 35831.64,
            "Z_DOT": 41245.59,
            "SEMI_MAJOR_AXIS": 35694.13,
            "ECCENTRICITY": 1224.44,
            "INCLINATION": 38599.42,
            "RA_OF_ASC_NODE": 37611.86,
            "ARG_OF_PERICENTER": 25304.2,
            "TRUE_ANOMALY": 63983.12,
            "MEAN_ANOMALY": 588.33,
            "GM": 6311.43,
            "MASS": 14798.28,
            "SOLAR_RAD_AREA": 65149.5,
            "SOLAR_RAD_COEFF": 74719.89,
            "DRAG_AREA": 11225.3,
            "DRAG_COEFF": 9766.36,
            "COV_REF_FRAME": null,
            "CX_X": 1226.46,
            "CY_X": 98544.35,
            "CY_Y": 39695.41,
            "CZ_X": 67900.21,
            "CZ_Y": 58872.71,
            "CZ_Z": 72020.58,
            "CX_DOT_X": 57060.92,
            "CX_DOT_Y": 23503.72,
            "CX_DOT_Z": 40909.15,
            "CX_DOT_X_DOT": 33028.28,
            "CY_DOT_X": 80432.94,
            "CY_DOT_Y": 36236.25,
            "CY_DOT_Z": 37066.53,
            "CY_DOT_X_DOT": 90693.47,
            "CY_DOT_Y_DOT": 60374.05,
            "CZ_DOT_X": 16298.21,
            "CZ_DOT_Y": 74723.68,
            "CZ_DOT_Z": 44381.93,
            "CZ_DOT_X_DOT": 77547.22,
            "CZ_DOT_Y_DOT": 70897.54,
            "CZ_DOT_Z_DOT": 35009.48,
            "MANEUVERS": [
                {
                    "bb": null,
                    "bb_pos": 0,
                    "MAN_EPOCH_IGNITION": "2037-04-21T19:08:30.497Z",
                    "MAN_DURATION": 93094.78,
                    "MAN_DELTA_MASS": 59245.84,
                    "MAN_REF_FRAME": null,
                    "MAN_DV_1": 53867.17,
                    "MAN_DV_2": 45515.32,
                    "MAN_DV_3": 92178.35
                },
                {
                    "bb": null,
                    "bb_pos": 0,
                    "MAN_EPOCH_IGNITION": "2088-06-16T16:37:09.234Z",
                    "MAN_DURATION": 79590.8,
                    "MAN_DELTA_MASS": 57581.16,
                    "MAN_REF_FRAME": null,
                    "MAN_DV_1": 70019.76,
                    "MAN_DV_2": 77836.13,
                    "MAN_DV_3": 72695.17
                }
            ],
            "USER_DEFINED_BIP_0044_TYPE": 222945417,
            "USER_DEFINED_OBJECT_DESIGNATOR": "0x2",
            "USER_DEFINED_EARTH_MODEL": "0xb",
            "USER_DEFINED_EPOCH_TIMESTAMP": 9900.51,
            "USER_DEFINED_EPOCH_MICROSECONDS": 45526.85
        },
        {
            "bb": null,
            "bb_pos": 0,
            "CCSDS_OPM_VERS": 75367.75,
            "CREATION_DATE": "1998-03-15T22:52:22.781Z",
            "ORIGINATOR": "Roob - Christiansen",
            "OBJECT_NAME": "0xD",
            "OBJECT_ID": "0xf",
            "CENTER_NAME": "0x9",
            "REF_FRAME": null,
            "REF_FRAME_EPOCH": "2056-01-02T10:00:50.385Z",
            "TIME_SYSTEM": "0xa",
            "COMMENT": "0x8",
            "EPOCH": "2080-06-10T22:21:50.921Z",
            "X": 23528.2,
            "Y": 2373.02,
            "Z": 85345.55,
            "X_DOT": 13641.75,
            "Y_DOT": 55345.62,
            "Z_DOT": 98034.17,
            "SEMI_MAJOR_AXIS": 98621.57,
            "ECCENTRICITY": 96154.01,
            "INCLINATION": 65532.58,
            "RA_OF_ASC_NODE": 77326.97,
            "ARG_OF_PERICENTER": 18380.64,
            "TRUE_ANOMALY": 1440.65,
            "MEAN_ANOMALY": 75024.29,
            "GM": 79267.32,
            "MASS": 95737.72,
            "SOLAR_RAD_AREA": 34991.78,
            "SOLAR_RAD_COEFF": 1684.83,
            "DRAG_AREA": 75062.18,
            "DRAG_COEFF": 26037.39,
            "COV_REF_FRAME": null,
            "CX_X": 54654.98,
            "CY_X": 51073.74,
            "CY_Y": 21452.45,
            "CZ_X": 79497.25,
            "CZ_Y": 48706.8,
            "CZ_Z": 88176.44,
            "CX_DOT_X": 78518.63,
            "CX_DOT_Y": 6424.3,
            "CX_DOT_Z": 78169.62,
            "CX_DOT_X_DOT": 77539.37,
            "CY_DOT_X": 9771.84,
            "CY_DOT_Y": 89811.27,
            "CY_DOT_Z": 16994.82,
            "CY_DOT_X_DOT": 34525.72,
            "CY_DOT_Y_DOT": 44098.11,
            "CZ_DOT_X": 42175.36,
            "CZ_DOT_Y": 49874.67,
            "CZ_DOT_Z": 46608.66,
            "CZ_DOT_X_DOT": 11250.86,
            "CZ_DOT_Y_DOT": 71851.67,
            "CZ_DOT_Z_DOT": 48970.97,
            "MANEUVERS": [
                {
                    "bb": null,
                    "bb_pos": 0,
                    "MAN_EPOCH_IGNITION": "2098-01-11T05:14:25.776Z",
                    "MAN_DURATION": 24526.46,
                    "MAN_DELTA_MASS": 17611.5,
                    "MAN_REF_FRAME": null,
                    "MAN_DV_1": 64275.56,
                    "MAN_DV_2": 76265.38,
                    "MAN_DV_3": 77032.59
                },
                {
                    "bb": null,
                    "bb_pos": 0,
                    "MAN_EPOCH_IGNITION": "2031-03-04T17:43:26.912Z",
                    "MAN_DURATION": 81002.14,
                    "MAN_DELTA_MASS": 20936.93,
                    "MAN_REF_FRAME": null,
                    "MAN_DV_1": 92007.75,
                    "MAN_DV_2": 96459.38,
                    "MAN_DV_3": 44772.38
                }
            ],
            "USER_DEFINED_BIP_0044_TYPE": 1231836357,
            "USER_DEFINED_OBJECT_DESIGNATOR": "0xB",
            "USER_DEFINED_EARTH_MODEL": "0xC",
            "USER_DEFINED_EPOCH_TIMESTAMP": 6471.25,
            "USER_DEFINED_EPOCH_MICROSECONDS": 28681.47
        },
        {
            "bb": null,
            "bb_pos": 0,
            "CCSDS_OPM_VERS": 46813.14,
            "CREATION_DATE": "2044-08-02T06:37:10.823Z",
            "ORIGINATOR": "Schroeder - Schuster",
            "OBJECT_NAME": "0xc",
            "OBJECT_ID": "0x1",
            "CENTER_NAME": "0xF",
            "REF_FRAME": null,
            "REF_FRAME_EPOCH": "2079-01-26T20:16:31.666Z",
            "TIME_SYSTEM": "0xa",
            "COMMENT": "0x3",
            "EPOCH": "2033-01-14T02:48:58.638Z",
            "X": 4425.71,
            "Y": 65956.45,
            "Z": 845.57,
            "X_DOT": 91008.41,
            "Y_DOT": 49817.98,
            "Z_DOT": 84477.17,
            "SEMI_MAJOR_AXIS": 9627.2,
            "ECCENTRICITY": 24627.25,
            "INCLINATION": 56867.75,
            "RA_OF_ASC_NODE": 78900.06,
            "ARG_OF_PERICENTER": 74888.85,
            "TRUE_ANOMALY": 42513.43,
            "MEAN_ANOMALY": 32564.9,
            "GM": 29147.86,
            "MASS": 75176.96,
            "SOLAR_RAD_AREA": 19484.78,
            "SOLAR_RAD_COEFF": 11411.76,
            "DRAG_AREA": 7367.5,
            "DRAG_COEFF": 48803.24,
            "COV_REF_FRAME": null,
            "CX_X": 90133.19,
            "CY_X": 45597.29,
            "CY_Y": 69366.15,
            "CZ_X": 58598.2,
            "CZ_Y": 32147.08,
            "CZ_Z": 39563.62,
            "CX_DOT_X": 11223.01,
            "CX_DOT_Y": 35892.25,
            "CX_DOT_Z": 49589.49,
            "CX_DOT_X_DOT": 11089.9,
            "CY_DOT_X": 23628.58,
            "CY_DOT_Y": 98031.73,
            "CY_DOT_Z": 19976.04,
            "CY_DOT_X_DOT": 86135.76,
            "CY_DOT_Y_DOT": 18789.9,
            "CZ_DOT_X": 72197.45,
            "CZ_DOT_Y": 72151.93,
            "CZ_DOT_Z": 9241.03,
            "CZ_DOT_X_DOT": 47774.06,
            "CZ_DOT_Y_DOT": 29297.16,
            "CZ_DOT_Z_DOT": 60329.24,
            "MANEUVERS": [
                {
                    "bb": null,
                    "bb_pos": 0,
                    "MAN_EPOCH_IGNITION": "2043-11-04T21:34:13.158Z",
                    "MAN_DURATION": 16283.94,
                    "MAN_DELTA_MASS": 80431.56,
                    "MAN_REF_FRAME": null,
                    "MAN_DV_1": 6363.01,
                    "MAN_DV_2": 57185.29,
                    "MAN_DV_3": 17631.36
                },
                {
                    "bb": null,
                    "bb_pos": 0,
                    "MAN_EPOCH_IGNITION": "2057-07-26T02:39:31.614Z",
                    "MAN_DURATION": 3763.28,
                    "MAN_DELTA_MASS": 6394.5,
                    "MAN_REF_FRAME": null,
                    "MAN_DV_1": 22872.69,
                    "MAN_DV_2": 90261.16,
                    "MAN_DV_3": 26174.56
                }
            ],
            "USER_DEFINED_BIP_0044_TYPE": 3593276924,
            "USER_DEFINED_OBJECT_DESIGNATOR": "0x8",
            "USER_DEFINED_EARTH_MODEL": "0xe",
            "USER_DEFINED_EPOCH_TIMESTAMP": 18968.32,
            "USER_DEFINED_EPOCH_MICROSECONDS": 2146.75
        }
    ]
}